$$SOE
2460154.500000000, A.D. 2023-Jul-29 00:00:00.0000, 6.878236364885170E+06, 3.594132735651891E+08, 3.777971636140957E+07,
2460161.500000000, A.D. 2023-Aug-05 00:00:00.0000, -4.086499153547147E+06, 3.594547333982736E+08, 3.793755235147658E+07,
2460168.500000000, A.D. 2023-Aug-12 00:00:00.0000, -1.504700322097546E+07, 3.591267464957809E+08, 3.805639139576128E+07,
2460175.500000000, A.D. 2023-Aug-19 00:00:00.0000, -2.599201228271588E+07, 3.584295768433338E+08, 3.813610416563313E+07,
2460182.500000000, A.D. 2023-Aug-26 00:00:00.0000, -3.691026534076561E+07, 3.573637489073293E+08, 3.817658884140715E+07,
2460189.500000000, A.D. 2023-Sep-02 00:00:00.0000, -4.779050469601552E+07, 3.559300482725693E+08, 3.817777118833742E+07,
2460196.500000000, A.D. 2023-Sep-09 00:00:00.0000, -5.862147673396443E+07, 3.541295225637051E+08, 3.813960466379894E+07,
2460203.500000000, A.D. 2023-Sep-16 00:00:00.0000, -6.939193261210573E+07, 3.519634825908295E+08, 3.806207053574587E+07,
2460210.500000000, A.D. 2023-Sep-23 00:00:00.0000, -8.009062846012424E+07, 3.494335040040601E+08, 3.794517799801932E+07,
2460217.500000000, A.D. 2023-Sep-30 00:00:00.0000, -9.070632546128772E+07, 3.465414306477015E+08, 3.778896441157620E+07,
2460224.500000000, A.D. 2023-Oct-07 00:00:00.0000, -1.012277921950325E+08, 3.432893790722317E+08, 3.759349584359343E+07,
2460231.500000000, A.D. 2023-Oct-14 00:00:00.0000, -1.116438082250667E+08, 3.396797408822317E+08, 3.735886753764404E+07,
2460238.500000000, A.D. 2023-Oct-21 00:00:00.0000, -1.219431657385765E+08, 3.357151845141323E+08, 3.708520415016477E+07,
2460245.500000000, A.D. 2023-Oct-28 00:00:00.0000, -1.321146706950244E+08, 3.313986587072200E+08, 3.677266006996062E+07,
2460252.500000000, A.D. 2023-Nov-04 00:00:00.0000, -1.421471447627343E+08, 3.267333968963425E+08, 3.642141987274104E+07,
2460259.500000000, A.D. 2023-Nov-11 00:00:00.0000, -1.520294278947878E+08, 3.217229219200090E+08, 3.603169884515813E+07,
2460266.500000000, A.D. 2023-Nov-18 00:00:00.0000, -1.617503813538948E+08, 3.163710509714170E+08, 3.560374355227602E+07,
2460273.500000000, A.D. 2023-Nov-25 00:00:00.0000, -1.712988911420284E+08, 3.106819008025010E+08, 3.513783244212949E+07,
2460280.500000000, A.D. 2023-Dec-02 00:00:00.0000, -1.806638718379402E+08, 3.046598931517619E+08, 3.463427648194686E+07,
2460287.500000000, A.D. 2023-Dec-09 00:00:00.0000, -1.898342708024760E+08, 2.983097603168444E+08, 3.409341981282851E+07,
2460294.500000000, A.D. 2023-Dec-16 00:00:00.0000, -1.987990725079468E+08, 2.916365508676220E+08, 3.351564039754257E+07,
2460301.500000000, A.D. 2023-Dec-23 00:00:00.0000, -2.075473026887569E+08, 2.846456361750633E+08, 3.290135068628295E+07,
2460308.500000000, A.D. 2023-Dec-30 00:00:00.0000, -2.160680336985213E+08, 2.773427187953657E+08, 3.225099850924323E+07,
2460315.500000000, A.D. 2024-Jan-06 00:00:00.0000, -2.243503928868423E+08, 2.697338403382114E+08, 3.156506816458799E+07,
2460322.500000000, A.D. 2024-Jan-13 00:00:00.0000, -2.323835708557970E+08, 2.618253869888408E+08, 3.084408126028216E+07,
2460329.500000000, A.D. 2024-Jan-20 00:00:00.0000, -2.401568284131326E+08, 2.536240957340659E+08, 3.008859744651362E+07,
2460336.500000000, A.D. 2024-Jan-27 00:00:00.0000, -2.476595042990146E+08, 2.451370619165527E+08, 2.929921527534503E+07,
2460343.500000000, A.D. 2024-Feb-03 00:00:00.0000, -2.548810241566324E+08, 2.363717471380697E+08, 2.847657314560674E+07,
2460350.500000000, A.D. 2024-Feb-10 00:00:00.0000, -2.618109105092703E+08, 2.273359871800209E+08, 2.762135027905199E+07,
2460357.500000000, A.D. 2024-Feb-17 00:00:00.0000, -2.684387936471460E+08, 2.180379999017457E+08, 2.673426771043737E+07,
2460364.500000000, A.D. 2024-Feb-24 00:00:00.0000, -2.747544234326301E+08, 2.084863930784177E+08, 2.581608928401434E+07,
2460371.500000000, A.D. 2024-Mar-02 00:00:00.0000, -2.807476820417794E+08, 1.986901720884931E+08, 2.486762264584495E+07,
2460378.500000000, A.D. 2024-Mar-09 00:00:00.0000, -2.864085975524200E+08, 1.886587473268843E+08, 2.388972020906501E+07,
2460385.500000000, A.D. 2024-Mar-16 00:00:00.0000, -2.917273580319294E+08, 1.784019414766553E+08, 2.288328006678757E+07,
2460392.500000000, A.D. 2024-Mar-23 00:00:00.0000, -2.966943262744983E+08, 1.679299976785870E+08, 2.184924694686288E+07,
2460399.500000000, A.D. 2024-Mar-30 00:00:00.0000, -3.013000574746217E+08, 1.572535884963117E+08, 2.078861340486443E+07,
2460406.500000000, A.D. 2024-Apr-06 00:00:00.0000, -3.055353196235483E+08, 1.463838222305585E+08, 1.970242094841144E+07,
2460413.500000000, A.D. 2024-Apr-13 00:00:00.0000, -3.093911131061603E+08, 1.353322473299384E+08, 1.859176082596198E+07,
2460420.500000000, A.D. 2024-Apr-20 00:00:00.0000, -3.128586904743459E+08, 1.241108574679580E+08, 1.745777477554405E+07,
2460427.500000000, A.D. 2024-Apr-27 00:00:00.0000, -3.159295779444999E+08, 1.127320966128519E+08, 1.630165581533042E+07,
2460434.500000000, A.D. 2024-May-04 00:00:00.0000, -3.185955985548538E+08, 1.012088632726753E+08, 1.512464899837024E+07,
2460441.500000000, A.D. 2024-May-11 00:00:00.0000, -3.208488967561202E+08, 8.955451368975630E+07, 1.392805208824290E+07,
2460448.500000000, A.D. 2024-May-18 00:00:00.0000, -3.226819643567926E+08, 7.778286387182385E+07, 1.271321613590381E+07,
2460455.500000000, A.D. 2024-May-25 00:00:00.0000, -3.240876677930044E+08, 6.590819031013718E+07, 1.148154593997691E+07,
2460462.500000000, A.D. 2024-Jun-01 00:00:00.0000, -3.250592766470596E+08, 5.394522917708382E+07, 1.023450036449712E+07,
2460469.500000000, A.D. 2024-Jun-08 00:00:00.0000, -3.255904931395453E+08, 4.190917382293800E+07, 8.973592472910607E+06,
2460476.500000000, A.D. 2024-Jun-15 00:00:00.0000, -3.256754821519023E+08, 2.981567095254375E+07, 7.700389468642756E+06,
2460483.500000000, A.D. 2024-Jun-22 00:00:00.0000, -3.253089027247704E+08, 1.768081648556191E+07, 6.416512611996616E+06,
2460490.500000000, A.D. 2024-Jun-29 00:00:00.0000, -3.244859430799465E+08, 5.521149101450509E+06, 5.123637139706763E+06,
2460497.500000000, A.D. 2024-Jul-06 00:00:00.0000, -3.232023564329476E+08, -6.646361180972119E+06, 3.823491722343896E+06,
2460504.500000000, A.D. 2024-Jul-13 00:00:00.0000, -3.214544955314234E+08, -1.880432674243910E+07, 2.517857491263697E+06,
2460511.500000000, A.D. 2024-Jul-20 00:00:00.0000, -3.192393477598062E+08, -3.093495745449936E+07, 1.208566890500270E+06,
2460518.500000000, A.D. 2024-Jul-27 00:00:00.0000, -3.165545713054757E+08, -4.302007826890277E+07, -1.024976863284260E+05,
2460525.500000000, A.D. 2024-Aug-03 00:00:00.0000, -3.133985319361577E+08, -5.504114985748671E+07, -1.413405551872741E+06,
2460532.500000000, A.D. 2024-Aug-10 00:00:00.0000, -3.097703400169744E+08, -6.697929247073480E+07, -2.722179710717022E+06,
2460539.500000000, A.D. 2024-Aug-17 00:00:00.0000, -3.056698874804454E+08, -7.881531314277510E+07, -4.026799197720937E+06,
2460546.500000000, A.D. 2024-Aug-24 00:00:00.0000, -3.010978844463942E+08, -9.052973639926912E+07, -5.325201791712712E+06,
2460553.500000000, A.D. 2024-Aug-31 00:00:00.0000, -2.960558950659652E+08, -1.021028386505864E+08, -6.615287135931082E+06,
2460560.500000000, A.D. 2024-Sep-07 00:00:00.0000, -2.905463718884192E+08, -1.135146862526913E+08, -7.894920302243501E+06,
2460567.500000000, A.D. 2024-Sep-14 00:00:00.0000, -2.845726883150412E+08, -1.247451763284278E+08, -9.161935738386758E+06,
2460574.500000000, A.D. 2024-Sep-21 00:00:00.0000, -2.781391708049157E+08, -1.357740799910472E+08, -1.041414138991209E+07,
2460581.500000000, A.D. 2024-Sep-28 00:00:00.0000, -2.712511309377692E+08, -1.465810912104385E+08, -1.164932322469392E+07,
2460588.500000000, A.D. 2024-Oct-05 00:00:00.0000, -2.639148932614174E+08, -1.571458812879904E+08, -1.286525050080650E+07,
2460595.500000000, A.D. 2024-Oct-12 00:00:00.0000, -2.561378188577172E+08, -1.674481558776578E+08, -1.405968149937487E+07,
2460602.500000000, A.D. 2024-Oct-19 00:00:00.0000, -2.479283259301481E+08, -1.774677146917901E+08, -1.523036957585341E+07,
2460609.500000000, A.D. 2024-Oct-26 00:00:00.0000, -2.392959069883389E+08, -1.871845145136373E+08, -1.637506957893075E+07,
2460616.500000000, A.D. 2024-Nov-02 00:00:00.0000, -2.302511419208288E+08, -1.965787354360759E+08, -1.749154465476646E+07,
2460623.500000000, A.D. 2024-Nov-09 00:00:00.0000, -2.208057064222976E+08, -2.056308500189952E+08, -1.857757341983260E+07,
2460630.500000000, A.D. 2024-Nov-16 00:00:00.0000, -2.109723753285701E+08, -2.143216950153394E+08, -1.963095747379605E+07,
2460637.500000000, A.D. 2024-Nov-23 00:00:00.0000, -2.007650204139113E+08, -2.226325453046815E+08, -2.064952922291663E+07,
2460644.500000000, A.D. 2024-Nov-30 00:00:00.0000, -1.901986020761511E+08, -2.305451896071608E+08, -2.163115999197078E+07,
2460651.500000000, A.D. 2024-Dec-07 00:00:00.0000, -1.792891541666222E+08, -2.380420070304175E+08, -2.257376837763028E+07,
2460658.500000000, A.D. 2024-Dec-14 00:00:00.0000, -1.680537623810500E+08, -2.451060426441104E+08, -2.347532862238467E+07,
2460665.500000000, A.D. 2024-Dec-21 00:00:00.0000, -1.565105383159235E+08, -2.517210826921024E+08, -2.433387883398832E+07,
2460672.500000000, A.D. 2024-Dec-28 00:00:00.0000, -1.446785870731645E+08, -2.578717317411011E+08, -2.514752940541339E+07,
2460679.500000000, A.D. 2025-Jan-04 00:00:00.0000, -1.325779657517319E+08, -2.635434886910357E+08, -2.591447160676503E+07,
2460686.500000000, A.D. 2025-Jan-11 00:00:00.0000, -1.202296346674340E+08, -2.687228192625517E+08, -2.663298596967366E+07,
2460693.500000000, A.D. 2025-Jan-18 00:00:00.0000, -1.076554023252567E+08, -2.733972251398714E+08, -2.730145037517887E+07,
2460700.500000000, A.D. 2025-Jan-25 00:00:00.0000, -9.487786409918995E+07, -2.775553094999945E+08, -2.791834782443248E+07,
2460707.500000000, A.D. 2025-Feb-01 00:00:00.0000, -8.192033471978533E+07, -2.811868382263414E+08, -2.848227383030519E+07,
2460714.500000000, A.D. 2025-Feb-08 00:00:00.0000, -6.880677489308669E+07, -2.842827960849663E+08, -2.899194335428485E+07,
2460721.500000000, A.D. 2025-Feb-15 00:00:00.0000, -5.556171249861474E+07, -2.868354372249867E+08, -2.944619721718059E+07,
$$EOE